NORAD_CAT_ID,OBJECT_NAME,OBJECT_TYPE,EPOCH,MEAN_MOTION,ECCENTRICITY,INCLINATION,RA_OF_ASC_NODE,ARG_OF_PERICENTER,MEAN_ANOMALY,BSTAR,MEAN_MOTION_DOT,MEAN_MOTION_DDOT,TLE_LINE0,TLE_LINE1,TLE_LINE2,SEMIMAJOR_AXIS,PERIOD,APOGEE,PERIGEE,DECAYED
53729.0,STARLINK-4651,PAYLOAD,2023-11-03 03:45:19,15.08836001,0.0001634,53.2156,143.8516,76.1318,283.9856,-5.3064e-05,-1.132e-05,0.0,0 STARLINK-4651,1 53729U 22107AF  23307.15647493 -.00001132  00000-0 -53064-4 0  9993,2 53729  53.2156 143.8516 0001634  76.1318 283.9856 15.08836001 64494,6917.893,95.438,540.888,538.627,0.0
53729.0,STARLINK-4651,PAYLOAD,2023-11-03 13:17:38,15.08838952,0.0001462,53.2167,142.0664,88.6241,271.4918,5.924e-05,6.55e-06,0.0,0 STARLINK-4651,1 53729U 22107AF  23307.55391405  .00000655  00000-0  59240-4 0  9995,2 53729  53.2167 142.0664 0001462  88.6241 271.4918 15.08838952 65188,6917.884,95.438,540.76,538.737,0.0
53729.0,STARLINK-4651,PAYLOAD,2023-11-03 19:39:10,15.08843814,0.0001491,53.216,140.8763,91.6666,268.4497,0.00011488,1.541e-05,0.0,0 STARLINK-4651,1 53729U 22107AF  23307.81887092  .00001541  00000-0  11488-3 0  9992,2 53729  53.2160 140.8763 0001491  91.6666 268.4497 15.08843814 64599,6917.869,95.437,540.765,538.702,0.0
53729.0,STARLINK-4651,PAYLOAD,2023-11-03 21:14:33,15.08844739,0.0001457,53.2162,140.5793,89.9504,270.1655,0.000126,1.718e-05,0.0,0 STARLINK-4651,1 53729U 22107AF  23307.88511048  .00001718  00000-0  12600-3 0  9997,2 53729  53.2162 140.5793 0001457  89.9504 270.1655 15.08844739 65239,6917.866,95.437,540.739,538.723,0.0
53729.0,STARLINK-4651,PAYLOAD,2023-11-03 22:49:56,15.08846073,0.0001461,53.2161,140.2818,90.2033,269.9127,0.00014533,2.026e-05,0.0,0 STARLINK-4651,1 53729U 22107AF  23307.95134976  .00002026  00000-0  14533-3 0  9996,2 53729  53.2161 140.2818 0001461  90.2033 269.9127 15.08846073 65244,6917.862,95.437,540.738,538.716,0.0
53729.0,STARLINK-4651,PAYLOAD,2023-11-04 19:29:58,15.08832996,0.000137,53.217,136.4152,92.8611,267.2538,4.3108e-05,3.98e-06,0.0,0 STARLINK-4651,1 53729U 22107AF  23308.81248036  .00000398  00000-0  43108-4 0  9996,2 53729  53.2170 136.4152 0001370  92.8611 267.2538 15.08832996 64741,6917.902,95.438,540.715,538.819,0.0
53729.0,STARLINK-4651,PAYLOAD,2023-11-05 05:02:16,15.08844791,0.000128,53.217,134.6312,90.7009,269.413,8.6296e-05,1.086e-05,0.0,0 STARLINK-4651,1 53729U 22107AF  23309.20991330  .00001086  00000-0  86296-4 0  9992,2 53729  53.2170 134.6312 0001280  90.7009 269.4130 15.08844791 64802,6917.866,95.437,540.616,538.845,0.0
53729.0,STARLINK-4651,PAYLOAD,2023-11-05 12:59:12,15.08846926,0.0001301,53.2164,133.1439,90.8927,269.2214,0.00015561,2.19e-05,0.0,0 STARLINK-4651,1 53729U 22107AF  23309.54111226  .00002190  00000-0  15561-3 0  9990,2 53729  53.2164 133.1439 0001301  90.8927 269.2214 15.08846926 65481,6917.859,95.437,540.624,538.824,0.0
53729.0,STARLINK-4651,PAYLOAD,2023-11-05 19:20:44,15.08857301,0.0001205,53.2161,131.9557,90.3569,269.7561,0.0004458,6.817e-05,0.0,0 STARLINK-4651,1 53729U 22107AF  23309.80606957  .00006817  00000-0  44580-3 0  9992,2 53729  53.2161 131.9557 0001205  90.3569 269.7561 15.08857301 65529,6917.828,95.436,540.526,538.859,0.0
53729.0,STARLINK-4651,PAYLOAD,2023-11-06 11:14:35,15.08853465,0.0001656,53.2169,128.9847,87.7142,272.404,0.00024022,3.539e-05,0.0,0 STARLINK-4651,1 53729U 22107AF  23310.46846708  .00003539  00000-0  24022-3 0  9993,2 53729  53.2169 128.9847 0001656  87.7142 272.4040 15.08853465 64992,6917.839,95.437,540.85,538.559,0.0
53729.0,STARLINK-4651,PAYLOAD,2023-11-06 19:11:31,15.08846925,0.0001147,53.2156,127.4951,81.9704,278.1418,0.00013543,1.869e-05,0.0,0 STARLINK-4651,1 53729U 22107AF  23310.79966727  .00001869  00000-0  13543-3 0  9993,2 53729  53.2156 127.4951 0001147  81.9704 278.1418 15.08846925 65674,6917.859,95.437,540.518,538.931,0.0
53729.0,STARLINK-4651,PAYLOAD,2023-11-07 11:05:23,15.08832084,0.0001684,53.2153,124.5214,85.1016,275.0169,-0.00014219,-2.55e-05,0.0,0 STARLINK-4651,1 53729U 22107AF  23311.46207729 -.00002550  00000-0 -14219-3 0  9999,2 53729  53.2153 124.5214 0001684  85.1016 275.0169 15.08832084 65141,6917.905,95.438,540.935,538.605,0.0
53729.0,STARLINK-4651,PAYLOAD,2023-11-07 19:02:19,15.08825013,0.0001585,53.2175,123.035,74.2591,285.8575,-0.000268,-4.549e-05,0.0,0 STARLINK-4651,1 53729U 22107AF  23311.79328274 -.00004549  00000-0 -26800-3 0  9993,2 53729  53.2175 123.0350 0001585  74.2591 285.8575 15.08825013 65196,6917.926,95.439,540.888,538.695,0.0
53729.0,STARLINK-4651,PAYLOAD,2023-11-08 04:34:38,15.08831343,0.0001412,53.2174,121.2511,88.5195,271.5959,-0.0001806,-3.16e-05,0.0,0 STARLINK-4651,1 53729U 22107AF  23312.19072151 -.00003160  00000-0 -18060-3 0  9995,2 53729  53.2174 121.2511 0001412  88.5195 271.5959 15.08831343 65259,6917.907,95.438,540.749,538.795,0.0
53729.0,STARLINK-4651,PAYLOAD,2023-11-08 18:53:06,15.08838157,0.0001273,53.2172,118.5743,82.0131,278.1005,8.8588e-05,1.122e-05,0.0,0 STARLINK-4651,1 53729U 22107AF  23312.78688315  .00001122  00000-0  88588-4 0  9992,2 53729  53.2172 118.5743 0001273  82.0131 278.1005 15.08838157 65971,6917.886,95.438,540.632,538.87,0.0
53729.0,STARLINK-4651,PAYLOAD,2023-11-09 04:25:25,15.08840731,0.0001365,53.2169,116.7905,85.0781,275.0367,0.00020102,2.913e-05,0.0,0 STARLINK-4651,1 53729U 22107AF  23313.18432393  .00002913  00000-0  20102-3 0  9996,2 53729  53.2169 116.7905 0001365  85.0781 275.0367 15.08840731 66039,6917.878,95.438,540.687,538.799,0.0
53729.0,STARLINK-4651,PAYLOAD,2023-11-09 17:08:30,15.0885009,0.0001326,53.2165,114.4108,87.396,272.7184,0.00045274,6.927e-05,0.0,0 STARLINK-4651,1 53729U 22107AF  23313.71424146  .00006927  00000-0  45274-3 0  9998,2 53729  53.2165 114.4108 0001326  87.3960 272.7184 15.08850090 66115,6917.85,95.437,540.632,538.797,0.0
53729.0,STARLINK-4651,PAYLOAD,2023-11-10 04:16:12,15.08849731,0.0001224,53.2151,112.332,81.1716,278.9414,0.00031489,4.728e-05,0.0,0 STARLINK-4651,1 53729U 22107AF  23314.17792100  .00004728  00000-0  31489-3 0  9997,2 53729  53.2151 112.3320 0001224  81.1716 278.9414 15.08849731 65552,6917.851,95.437,540.562,538.869,0.0
53729.0,STARLINK-4651,PAYLOAD,2023-11-10 13:48:31,15.08845833,0.0001775,53.2179,110.545,93.9113,266.2082,0.00012372,1.682e-05,0.0,0 STARLINK-4651,1 53729U 22107AF  23314.57536273  .00001682  00000-0  12372-3 0  9994,2 53729  53.2179 110.5450 0001775  93.9113 266.2082 15.08845833 66246,6917.863,95.437,540.955,538.5,0.0
53729.0,STARLINK-4651,PAYLOAD,2023-11-10 16:59:17,15.08845446,0.0001303,53.2158,109.9507,89.8699,270.2442,9.8348e-05,1.278e-05,0.0,0 STARLINK-4651,1 53729U 22107AF  23314.70784146  .00001278  00000-0  98348-4 0  9992,2 53729  53.2158 109.9507 0001303  89.8699 270.2442 15.08845446 65635,6917.864,95.437,540.63,538.827,0.0
53729.0,STARLINK-4651,PAYLOAD,2023-11-11 13:39:18,15.08844219,0.0001328,53.216,106.0846,91.7045,268.4099,9.6966e-05,1.256e-05,0.0,0 STARLINK-4651,1 53729U 22107AF  23315.56896152  .00001256  00000-0  96966-4 0  9998,2 53729  53.2160 106.0846 0001328  91.7045 268.4099 15.08844219 66394,6917.867,95.437,540.651,538.814,0.0
53729.0,STARLINK-4651,PAYLOAD,2023-11-11 20:00:50,15.0884921,0.0001305,53.2157,104.8957,86.2763,273.8378,0.00022697,3.327e-05,0.0,0 STARLINK-4651,1 53729U 22107AF  23315.83392010  .00003327  00000-0  22697-3 0  9992,2 53729  53.2157 104.8957 0001305  86.2763 273.8378 15.08849210 65801,6917.852,95.437,540.62,538.814,0.0
53729.0,STARLINK-4651,PAYLOAD,2023-11-12 10:19:19,15.08841396,0.0001334,53.2157,102.2197,86.4798,273.6347,0.00016859,2.396e-05,0.0,0 STARLINK-4651,1 53729U 22107AF  23316.43008392  .00002396  00000-0  16859-3 0  9994,2 53729  53.2157 102.2197 0001334  86.4798 273.6347 15.08841396 65891,6917.876,95.437,540.664,538.818,0.0
53729.0,STARLINK-4651,PAYLOAD,2023-11-12 13:30:05,15.08842204,0.0001325,53.2158,101.625,86.6989,273.4155,0.00020089,2.911e-05,0.0,0 STARLINK-4651,1 53729U 22107AF  23316.56256371  .00002911  00000-0  20089-3 0  9993,2 53729  53.2158 101.6250 0001325  86.6989 273.4155 15.08842204 66546,6917.874,95.437,540.655,538.822,0.0
53729.0,STARLINK-4651,PAYLOAD,2023-11-12 16:40:51,15.08845715,0.0001302,53.2165,101.029,90.2902,269.824,0.00023644,3.478e-05,0.0,0 STARLINK-4651,1 53729U 22107AF  23316.69504185  .00003478  00000-0  23644-3 0  9995,2 53729  53.2165 101.0290 0001302  90.2902 269.8240 15.08845715 66569,6917.863,95.437,540.629,538.827,0.0
53729.0,STARLINK-4651,PAYLOAD,2023-11-13 13:20:52,15.08844894,0.0001345,53.2167,97.1628,85.747,274.3676,0.00012075,1.635e-05,0.0,0 STARLINK-4651,1 53729U 22107AF  23317.55616077  .00001635  00000-0  12075-3 0  9994,2 53729  53.2167  97.1628 0001345  85.7470 274.3676 15.08844894 66692,6917.865,95.437,540.661,538.8,0.0
53729.0,STARLINK-4651,PAYLOAD,2023-11-13 16:31:38,15.08849103,0.0001297,53.2168,96.5693,86.7983,273.3157,0.00018395,2.642e-05,0.0,0 STARLINK-4651,1 53729U 22107AF  23317.68863830  .00002642  00000-0  18395-3 0  9999,2 53729  53.2168  96.5693 0001297  86.7983 273.3157 15.08849103 66088,6917.853,95.437,540.615,538.82,0.0
53729.0,STARLINK-4651,PAYLOAD,2023-11-14 10:00:50,15.08871803,7.96e-05,53.2171,93.2935,28.2112,331.8923,0.00037191,5.641e-05,0.0,0 STARLINK-4651,1 53729U 22107AF  23318.41725584  .00005641  00000-0  37191-3 0  9991,2 53729  53.2171  93.2935 0000796  28.2112 331.8923 15.08871803 66198,6917.783,95.436,540.199,539.098,0.0
53729.0,STARLINK-4651,PAYLOAD,2023-11-14 13:11:38,15.08835918,0.0001387,53.218,92.7045,83.7974,276.3176,-0.00016717,-2.947e-05,0.0,0 STARLINK-4651,1 53729U 22107AF  23318.54975105 -.00002947  00000-0 -16717-3 0  9990,2 53729  53.2180  92.7045 0001387  83.7974 276.3176 15.08835918 66845,6917.893,95.438,540.717,538.798,0.0
53729.0,STARLINK-4651,PAYLOAD,2023-11-14 17:57:47,15.08839014,0.0001433,53.2175,91.8116,81.083,279.0325,-0.00012591,-2.291e-05,0.0,0 STARLINK-4651,1 53729U 22107AF  23318.74846903 -.00002291  00000-0 -12591-3 0  9993,2 53729  53.2175  91.8116 0001433  81.0830 279.0325 15.08839014 66243,6917.883,95.438,540.74,538.757,0.0
